CZ-2D R/B               
1 28738U 05024B   25336.28222354  .00028065  00000+0  45992-3 0  9998
2 28738  97.3633 343.4620 0007043  39.0223 321.1537 15.52411612124632
ALOS (DAICHI)           
1 28931U 06002A   25336.27720435  .00002043  00000+0  35346-3 0  9992
2 28931  98.1076 287.8395 0000722 100.8652 259.2635 14.69434747 59174
H-2A R/B                
1 28932U 06002B   25336.27958171  .00012819  00000+0  67968-3 0  9990
2 28932  98.2306 110.1764 0054539 211.9529 147.8390 15.14227009 79682
RESURS-DK 1             
1 29228U 06021A   25336.17999275  .00004115  00000+0  24471-3 0  9991
2 29228  69.9324 129.1240 0007826 266.3432  93.6839 15.12062414 72784
CZ-4B R/B               
1 29507U 06046C   25336.14081279  .00006411  00000+0  33575-3 0  9997
2 29507  97.5755  16.3085 0032743 244.4093 115.3754 15.15699166 45263
CZ-2C R/B               
1 31114U 07010B   25336.29169378  .00000233  00000+0  12619-3 0  9991
2 31114  98.3972  89.4685 0058422 216.5405 143.1780 14.20202625965899
COSMO-SKYMED 1          
1 31598U 07023A   25336.28497042  .00004779  00000+0  43519-3 0  9994
2 31598  97.8846 161.6163 0001511  82.9552 277.1840 14.95643437   345
COSMOS 2428             
1 31792U 07029A   25336.26027480 -.00000006  00000+0  22534-4 0  9994
2 31792  70.9374  47.8821 0003085  39.6674 320.4672 14.12886802950339
SL-16 R/B               
1 31793U 07029B   25336.28262758 -.00000158  00000+0 -57062-4 0  9999
2 31793  70.9770  17.1399 0002445 265.9890 173.9819 14.14816525951593
KORONAS-FOTON           
1 33504U 09003A   25336.17006810  .00013844  00000+0  33573-3 0  9992
2 33504  82.4328  17.0555 0012582 142.5194 217.6932 15.40834675930714
CZ-2C R/B               
1 37731U 11030B   25335.84870378  .00002009  00000+0  26143-3 0  9998
2 37731  97.8391 290.1980 0051858 310.0122 102.8181 14.80839203775610
H-2A R/B                
1 38341U 12025E   25336.12737331  .00003788  00000+0  35208-3 0  9991
2 38341  98.4576 290.5412 0043924 272.2605  87.3584 14.94331353733643
