CCSDS_OMM_VERS = 2.0
CREATION_DATE  = 
ORIGINATOR     = 

OBJECT_NAME    = CZ-2D R/B
OBJECT_ID      = 2005-024B
CENTER_NAME    = EARTH
REF_FRAME      = TEME
TIME_SYSTEM    = UTC
MEAN_ELEMENT_THEORY = SGP/SGP4

EPOCH          = 2025-12-02T06:46:24.113856
MEAN_MOTION    = 15.52411612
ECCENTRICITY   = .00070433
INCLINATION    = 97.3633
RA_OF_ASC_NODE = 343.4620
ARG_OF_PERICENTER = 39.0223
MEAN_ANOMALY   = 321.1537

EPHEMERIS_TYPE = 0
CLASSIFICATION_TYPE = U
NORAD_CAT_ID   = 28738
ELEMENT_SET_NO = 999
REV_AT_EPOCH   = 12463
BSTAR          = .45992307E-3
MEAN_MOTION_DOT = .28065E-3
MEAN_MOTION_DDOT = 0

CCSDS_OMM_VERS = 2.0
CREATION_DATE  = 
ORIGINATOR     = 

OBJECT_NAME    = ALOS (DAICHI)
OBJECT_ID      = 2006-002A
CENTER_NAME    = EARTH
REF_FRAME      = TEME
TIME_SYSTEM    = UTC
MEAN_ELEMENT_THEORY = SGP/SGP4

EPOCH          = 2025-12-02T06:39:10.455840
MEAN_MOTION    = 14.69434747
ECCENTRICITY   = .0000722
INCLINATION    = 98.1076
RA_OF_ASC_NODE = 287.8395
ARG_OF_PERICENTER = 100.8652
MEAN_ANOMALY   = 259.2635

EPHEMERIS_TYPE = 0
CLASSIFICATION_TYPE = U
NORAD_CAT_ID   = 28931
ELEMENT_SET_NO = 999
REV_AT_EPOCH   = 5917
BSTAR          = .35346233E-3
MEAN_MOTION_DOT = .2043E-4
MEAN_MOTION_DDOT = 0

CCSDS_OMM_VERS = 2.0
CREATION_DATE  = 
ORIGINATOR     = 

OBJECT_NAME    = H-2A R/B
OBJECT_ID      = 2006-002B
CENTER_NAME    = EARTH
REF_FRAME      = TEME
TIME_SYSTEM    = UTC
MEAN_ELEMENT_THEORY = SGP/SGP4

EPOCH          = 2025-12-02T06:42:35.859744
MEAN_MOTION    = 15.14227009
ECCENTRICITY   = .00545397
INCLINATION    = 98.2306
RA_OF_ASC_NODE = 110.1764
ARG_OF_PERICENTER = 211.9529
MEAN_ANOMALY   = 147.8390

EPHEMERIS_TYPE = 0
CLASSIFICATION_TYPE = U
NORAD_CAT_ID   = 28932
ELEMENT_SET_NO = 999
REV_AT_EPOCH   = 7968
BSTAR          = .67968051E-3
MEAN_MOTION_DOT = .12819E-3
MEAN_MOTION_DDOT = 0

CCSDS_OMM_VERS = 2.0
CREATION_DATE  = 
ORIGINATOR     = 

OBJECT_NAME    = RESURS-DK 1
OBJECT_ID      = 2006-021A
CENTER_NAME    = EARTH
REF_FRAME      = TEME
TIME_SYSTEM    = UTC
MEAN_ELEMENT_THEORY = SGP/SGP4

EPOCH          = 2025-12-02T04:19:11.373600
MEAN_MOTION    = 15.12062414
ECCENTRICITY   = .0007826
INCLINATION    = 69.9324
RA_OF_ASC_NODE = 129.1240
ARG_OF_PERICENTER = 266.3432
MEAN_ANOMALY   = 93.6839

EPHEMERIS_TYPE = 0
CLASSIFICATION_TYPE = U
NORAD_CAT_ID   = 29228
ELEMENT_SET_NO = 999
REV_AT_EPOCH   = 7278
BSTAR          = .24471447E-3
MEAN_MOTION_DOT = .4115E-4
MEAN_MOTION_DDOT = 0

CCSDS_OMM_VERS = 2.0
CREATION_DATE  = 
ORIGINATOR     = 

OBJECT_NAME    = CZ-4B R/B
OBJECT_ID      = 2006-046C
CENTER_NAME    = EARTH
REF_FRAME      = TEME
TIME_SYSTEM    = UTC
MEAN_ELEMENT_THEORY = SGP/SGP4

EPOCH          = 2025-12-02T03:22:46.225056
MEAN_MOTION    = 15.15699166
ECCENTRICITY   = .00327432
INCLINATION    = 97.5755
RA_OF_ASC_NODE = 16.3085
ARG_OF_PERICENTER = 244.4093
MEAN_ANOMALY   = 115.3754

EPHEMERIS_TYPE = 0
CLASSIFICATION_TYPE = U
NORAD_CAT_ID   = 29507
ELEMENT_SET_NO = 999
REV_AT_EPOCH   = 4526
BSTAR          = .33575072E-3
MEAN_MOTION_DOT = .6411E-4
MEAN_MOTION_DDOT = 0

CCSDS_OMM_VERS = 2.0
CREATION_DATE  = 
ORIGINATOR     = 

OBJECT_NAME    = CZ-2C R/B
OBJECT_ID      = 2007-010B
CENTER_NAME    = EARTH
REF_FRAME      = TEME
TIME_SYSTEM    = UTC
MEAN_ELEMENT_THEORY = SGP/SGP4

EPOCH          = 2025-12-02T07:00:02.342592
MEAN_MOTION    = 14.20202625
ECCENTRICITY   = .00584223
INCLINATION    = 98.3972
RA_OF_ASC_NODE = 89.4685
ARG_OF_PERICENTER = 216.5405
MEAN_ANOMALY   = 143.1780

EPHEMERIS_TYPE = 0
CLASSIFICATION_TYPE = U
NORAD_CAT_ID   = 31114
ELEMENT_SET_NO = 999
REV_AT_EPOCH   = 96589
BSTAR          = .1261918E-3
MEAN_MOTION_DOT = .233E-5
MEAN_MOTION_DDOT = 0

CCSDS_OMM_VERS = 2.0
CREATION_DATE  = 
ORIGINATOR     = 

OBJECT_NAME    = COSMO-SKYMED 1
OBJECT_ID      = 2007-023A
CENTER_NAME    = EARTH
REF_FRAME      = TEME
TIME_SYSTEM    = UTC
MEAN_ELEMENT_THEORY = SGP/SGP4

EPOCH          = 2025-12-02T06:50:21.444288
MEAN_MOTION    = 14.95643437
ECCENTRICITY   = .0001511
INCLINATION    = 97.8846
RA_OF_ASC_NODE = 161.6163
ARG_OF_PERICENTER = 82.9552
MEAN_ANOMALY   = 277.1840

EPHEMERIS_TYPE = 0
CLASSIFICATION_TYPE = U
NORAD_CAT_ID   = 31598
ELEMENT_SET_NO = 999
REV_AT_EPOCH   = 34
BSTAR          = .43518864E-3
MEAN_MOTION_DOT = .4779E-4
MEAN_MOTION_DDOT = 0

CCSDS_OMM_VERS = 2.0
CREATION_DATE  = 
ORIGINATOR     = 

OBJECT_NAME    = COSMOS 2428
OBJECT_ID      = 2007-029A
CENTER_NAME    = EARTH
REF_FRAME      = TEME
TIME_SYSTEM    = UTC
MEAN_ELEMENT_THEORY = SGP/SGP4

EPOCH          = 2025-12-02T06:14:47.742720
MEAN_MOTION    = 14.12886802
ECCENTRICITY   = .00030853
INCLINATION    = 70.9374
RA_OF_ASC_NODE = 47.8821
ARG_OF_PERICENTER = 39.6674
MEAN_ANOMALY   = 320.4672

EPHEMERIS_TYPE = 0
CLASSIFICATION_TYPE = U
NORAD_CAT_ID   = 31792
ELEMENT_SET_NO = 999
REV_AT_EPOCH   = 95033
BSTAR          = .22534498E-4
MEAN_MOTION_DOT = -.6E-7
MEAN_MOTION_DDOT = 0

CCSDS_OMM_VERS = 2.0
CREATION_DATE  = 
ORIGINATOR     = 

OBJECT_NAME    = SL-16 R/B
OBJECT_ID      = 2007-029B
CENTER_NAME    = EARTH
REF_FRAME      = TEME
TIME_SYSTEM    = UTC
MEAN_ELEMENT_THEORY = SGP/SGP4

EPOCH          = 2025-12-02T06:46:59.022912
MEAN_MOTION    = 14.14816525
ECCENTRICITY   = .00024451
INCLINATION    = 70.9770
RA_OF_ASC_NODE = 17.1399
ARG_OF_PERICENTER = 265.9890
MEAN_ANOMALY   = 173.9819

EPHEMERIS_TYPE = 0
CLASSIFICATION_TYPE = U
NORAD_CAT_ID   = 31793
ELEMENT_SET_NO = 999
REV_AT_EPOCH   = 95159
BSTAR          = -.57061614E-4
MEAN_MOTION_DOT = -.158E-5
MEAN_MOTION_DDOT = 0

CCSDS_OMM_VERS = 2.0
CREATION_DATE  = 
ORIGINATOR     = 

OBJECT_NAME    = KORONAS-FOTON
OBJECT_ID      = 2009-003A
CENTER_NAME    = EARTH
REF_FRAME      = TEME
TIME_SYSTEM    = UTC
MEAN_ELEMENT_THEORY = SGP/SGP4

EPOCH          = 2025-12-02T04:04:53.883840
MEAN_MOTION    = 15.40834675
ECCENTRICITY   = .00125828
INCLINATION    = 82.4328
RA_OF_ASC_NODE = 17.0555
ARG_OF_PERICENTER = 142.5194
MEAN_ANOMALY   = 217.6932

EPHEMERIS_TYPE = 0
CLASSIFICATION_TYPE = U
NORAD_CAT_ID   = 33504
ELEMENT_SET_NO = 999
REV_AT_EPOCH   = 93071
BSTAR          = .33572785E-3
MEAN_MOTION_DOT = .13844E-3
MEAN_MOTION_DDOT = 0

CCSDS_OMM_VERS = 2.0
CREATION_DATE  = 
ORIGINATOR     = 

OBJECT_NAME    = CZ-2C R/B
OBJECT_ID      = 2011-030B
CENTER_NAME    = EARTH
REF_FRAME      = TEME
TIME_SYSTEM    = UTC
MEAN_ELEMENT_THEORY = SGP/SGP4

EPOCH          = 2025-12-01T20:22:08.006592
MEAN_MOTION    = 14.80839203
ECCENTRICITY   = .00518584
INCLINATION    = 97.8391
RA_OF_ASC_NODE = 290.1980
ARG_OF_PERICENTER = 310.0122
MEAN_ANOMALY   = 102.8181

EPHEMERIS_TYPE = 0
CLASSIFICATION_TYPE = U
NORAD_CAT_ID   = 37731
ELEMENT_SET_NO = 999
REV_AT_EPOCH   = 77561
BSTAR          = .26142726E-3
MEAN_MOTION_DOT = .2009E-4
MEAN_MOTION_DDOT = 0

CCSDS_OMM_VERS = 2.0
CREATION_DATE  = 
ORIGINATOR     = 

OBJECT_NAME    = H-2A R/B
OBJECT_ID      = 2012-025E
CENTER_NAME    = EARTH
REF_FRAME      = TEME
TIME_SYSTEM    = UTC
MEAN_ELEMENT_THEORY = SGP/SGP4

EPOCH          = 2025-12-02T03:03:25.053984
MEAN_MOTION    = 14.94331353
ECCENTRICITY   = .00439243
INCLINATION    = 98.4576
RA_OF_ASC_NODE = 290.5412
ARG_OF_PERICENTER = 272.2605
MEAN_ANOMALY   = 87.3584

EPHEMERIS_TYPE = 0
CLASSIFICATION_TYPE = U
NORAD_CAT_ID   = 38341
ELEMENT_SET_NO = 999
REV_AT_EPOCH   = 73364
BSTAR          = .35208397E-3
MEAN_MOTION_DOT = .3788E-4
MEAN_MOTION_DDOT = 0

